NORAD_CAT_ID,OBJECT_NAME,OBJECT_TYPE,EPOCH,MEAN_MOTION,ECCENTRICITY,INCLINATION,RA_OF_ASC_NODE,ARG_OF_PERICENTER,MEAN_ANOMALY,BSTAR,MEAN_MOTION_DOT,MEAN_MOTION_DDOT,TLE_LINE0,TLE_LINE1,TLE_LINE2,SEMIMAJOR_AXIS,PERIOD,APOGEE,PERIGEE,DECAYED
52583.0,STARLINK-3895,PAYLOAD,2024-02-29 16:42:39,15.08845159,0.0001247,53.216,196.5902,87.7299,272.3836,5.8181e-05,6.38e-06,0.0,0 STARLINK-3895,1 52583U 22051AZ  24060.69629166  .00000638  00000-0  58181-4 0  9994,2 52583  53.2160 196.5902 0001247  87.7299 272.3836 15.08845159100020,6917.865,95.437,540.592,538.867,0.0
52583.0,STARLINK-3895,PAYLOAD,2024-03-01 14:58:03,15.0885095,0.0001331,53.2153,192.4288,87.4275,272.687,0.00015746,2.22e-05,0.0,0 STARLINK-3895,1 52583U 22051AZ  24061.62364700  .00002220  00000-0  15746-3 0  9996,2 52583  53.2153 192.4288 0001331  87.4275 272.6870 15.08850950100160,6917.847,95.437,540.633,538.791,0.0
52583.0,STARLINK-3895,PAYLOAD,2024-03-02 13:13:27,15.08840787,0.0001372,53.2153,188.265,87.2441,272.8708,9.4223e-05,1.212e-05,0.0,0 STARLINK-3895,1 52583U 22051AZ  24062.55101350  .00001212  00000-0  94223-4 0  9997,2 52583  53.2153 188.2650 0001372  87.2441 272.8708 15.08840787100309,6917.878,95.438,540.692,538.794,0.0
52583.0,STARLINK-3895,PAYLOAD,2024-03-02 14:48:50,15.08841266,0.0001438,53.2161,187.9684,80.8353,279.2802,9.1486e-05,1.168e-05,0.0,0 STARLINK-3895,1 52583U 22051AZ  24062.61725385  .00001168  00000-0  91486-4 0  9992,2 52583  53.2161 187.9684 0001438  80.8353 279.2802 15.08841266100382,6917.877,95.437,540.736,538.747,0.0
52583.0,STARLINK-3895,PAYLOAD,2024-03-03 14:39:37,15.08848493,0.00015,53.2161,183.5088,82.0328,278.0834,9.35e-05,1.201e-05,0.0,0 STARLINK-3895,1 52583U 22051AZ  24063.61085057  .00001201  00000-0  93500-4 0  9995,2 52583  53.2161 183.5088 0001500  82.0328 278.0834 15.08848493100468,6917.854,95.437,540.757,538.682,0.0
52583.0,STARLINK-3895,PAYLOAD,2024-03-04 12:55:00,15.08857945,0.0001436,53.216,179.3463,97.5782,262.5373,0.00033752,5.09e-05,0.0,0 STARLINK-3895,1 52583U 22051AZ  24064.53820119  .00005090  00000-0  33752-3 0  9995,2 52583  53.2160 179.3463 0001436  97.5782 262.5373 15.08857945100671,6917.826,95.436,540.684,538.697,0.0
52583.0,STARLINK-3895,PAYLOAD,2024-03-04 14:30:23,15.08859387,0.0001434,53.216,179.0491,97.3901,262.7254,0.00035195,5.321e-05,0.0,0 STARLINK-3895,1 52583U 22051AZ  24064.60444011  .00005321  00000-0  35195-3 0  9996,2 52583  53.2160 179.0491 0001434  97.3901 262.7254 15.08859387100614,6917.821,95.436,540.678,538.694,0.0
52583.0,STARLINK-3895,PAYLOAD,2024-03-05 12:45:48,15.08814493,0.0001472,53.2167,174.8893,104.2469,255.8687,-0.00075064,-0.00012206,0.0,0 STARLINK-3895,1 52583U 22051AZ  24065.53180990 -.00012206  00000-0 -75064-3 0  9993,2 52583  53.2167 174.8893 0001472 104.2469 255.8687 15.08814493100756,6917.958,95.439,540.842,538.805,0.0
52583.0,STARLINK-3895,PAYLOAD,2024-03-05 15:56:34,15.08816135,0.0001513,53.2157,174.2895,108.8153,251.3003,-0.000633,-0.00010341,0.0,0 STARLINK-3895,1 52583U 22051AZ  24065.66429045 -.00010341  00000-0 -63300-3 0  9992,2 52583  53.2157 174.2895 0001513 108.8153 251.3003 15.08816135100845,6917.953,95.439,540.865,538.772,0.0
52583.0,STARLINK-3895,PAYLOAD,2024-03-06 11:01:12,15.08833905,0.0001363,53.2154,170.7217,97.4636,262.6511,0.00029044,4.337e-05,0.0,0 STARLINK-3895,1 52583U 22051AZ  24066.45917628  .00004337  00000-0  29044-3 0  9992,2 52583  53.2154 170.7217 0001363  97.4636 262.6511 15.08833905100969,6917.899,95.438,540.707,538.821,0.0
52583.0,STARLINK-3895,PAYLOAD,2024-03-06 14:11:59,15.08845238,0.0001319,53.2153,170.1269,95.3406,264.7737,0.0014767,0.00023295,0.0,0 STARLINK-3895,1 52583U 22051AZ  24066.59166092  .00023295  00000-0  14767-2 0  9997,2 52583  53.2153 170.1269 0001319  95.3406 264.7737 15.08845238100912,6917.864,95.437,540.642,538.817,0.0
52583.0,STARLINK-3895,PAYLOAD,2024-03-06 23:44:17,15.08871586,0.0001318,53.215,168.3421,75.5367,284.5771,0.0015087,0.00023825,0.0,0 STARLINK-3895,1 52583U 22051AZ  24066.98909464  .00023825  00000-0  15087-2 0  9993,2 52583  53.2150 168.3421 0001318  75.5367 284.5771 15.08871586101041,6917.784,95.436,540.561,538.737,0.0
52583.0,STARLINK-3895,PAYLOAD,2024-03-07 14:02:46,15.08836963,0.0001411,53.2153,165.6671,81.5453,278.57,0.0015399,0.00024302,0.0,0 STARLINK-3895,1 52583U 22051AZ  24067.58526170  .00024302  00000-0  15399-2 0  9996,2 52583  53.2153 165.6671 0001411  81.5453 278.5700 15.08836963101065,6917.89,95.438,540.731,538.779,0.0
52583.0,STARLINK-3895,PAYLOAD,2024-03-08 05:56:38,15.08847456,0.0001535,53.2153,162.6946,83.7972,276.3194,0.0010325,0.00016186,0.0,0 STARLINK-3895,1 52583U 22051AZ  24068.24766353  .00016186  00000-0  10325-2 0  9994,2 52583  53.2153 162.6946 0001535  83.7972 276.3194 15.08847456101235,6917.858,95.437,540.784,538.661,0.0
52583.0,STARLINK-3895,PAYLOAD,2024-03-08 12:18:10,15.08843919,0.0001403,53.2153,161.503,89.8718,270.2435,0.00054556,8.406e-05,0.0,0 STARLINK-3895,1 52583U 22051AZ  24068.51262333  .00008406  00000-0  54556-3 0  9994,2 52583  53.2153 161.5030 0001403  89.8718 270.2435 15.08843919101204,6917.868,95.437,540.704,538.763,0.0
52583.0,STARLINK-3895,PAYLOAD,2024-03-09 12:08:57,15.08845219,0.0001578,53.2153,157.0419,94.6583,265.4589,0.00027347,4.068e-05,0.0,0 STARLINK-3895,1 52583U 22051AZ  24069.50622257  .00004068  00000-0  27347-3 0  9997,2 52583  53.2153 157.0419 0001578  94.6583 265.4589 15.08845219101427,6917.864,95.437,540.821,538.638,0.0
52583.0,STARLINK-3895,PAYLOAD,2024-03-10 11:59:44,15.0884144,0.0001288,53.2157,152.5824,87.2775,272.8365,0.00027228,4.048e-05,0.0,0 STARLINK-3895,1 52583U 22051AZ  24070.49982569  .00004048  00000-0  27228-3 0  9998,2 52583  53.2157 152.5824 0001288  87.2775 272.8365 15.08841440101572,6917.876,95.437,540.632,538.85,0.0
52583.0,STARLINK-3895,PAYLOAD,2024-03-11 11:50:31,15.08845068,0.0001288,53.2155,148.1214,89.6202,270.4937,0.00020506,2.978e-05,0.0,0 STARLINK-3895,1 52583U 22051AZ  24071.49342411  .00002978  00000-0  20506-3 0  9997,2 52583  53.2155 148.1214 0001288  89.6202 270.4937 15.08845068101653,6917.865,95.437,540.621,538.839,0.0
52583.0,STARLINK-3895,PAYLOAD,2024-03-12 05:19:46,15.08842412,0.0001307,53.2154,144.8499,89.0599,271.0543,0.00013104,1.798e-05,0.0,0 STARLINK-3895,1 52583U 22051AZ  24072.22206397  .00001798  00000-0  13104-3 0  9996,2 52583  53.2154 144.8499 0001307  89.0599 271.0543 15.08842412101835,6917.873,95.437,540.642,538.834,0.0
52583.0,STARLINK-3895,PAYLOAD,2024-03-12 21:13:37,15.08844842,0.0001343,53.2161,141.8771,96.9785,263.136,0.00011801,1.591e-05,0.0,0 STARLINK-3895,1 52583U 22051AZ  24072.88446166  .00001591  00000-0  11801-3 0  9991,2 52583  53.2161 141.8771 0001343  96.9785 263.1360 15.08844842101868,6917.866,95.437,540.66,538.802,0.0
52583.0,STARLINK-3895,PAYLOAD,2024-03-13 05:10:33,15.08830883,0.0001562,53.2183,140.3922,100.742,259.3749,0.00023208,3.407e-05,0.0,0 STARLINK-3895,1 52583U 22051AZ  24073.21566812  .00003407  00000-0  23208-3 0  9992,2 52583  53.2183 140.3922 0001562 100.7420 259.3749 15.08830883101988,6917.908,95.438,540.854,538.693,0.0
52583.0,STARLINK-3895,PAYLOAD,2024-03-13 11:32:05,15.08841248,0.0001566,53.2172,139.2031,101.3006,258.8162,3.7372e-05,3.07e-06,0.0,0 STARLINK-3895,1 52583U 22051AZ  24073.48062384  .00000307  00000-0  37372-4 0  9990,2 52583  53.2172 139.2031 0001566 101.3006 258.8162 15.08841248101952,6917.877,95.437,540.825,538.658,0.0
52583.0,STARLINK-3895,PAYLOAD,2024-03-13 21:04:24,15.08851481,0.0001505,53.217,137.4177,93.3508,266.7656,0.0001462,2.04e-05,0.0,0 STARLINK-3895,1 52583U 22051AZ  24073.87805756  .00002040  00000-0  14620-3 0  9997,2 52583  53.2170 137.4177 0001505  93.3508 266.7656 15.08851481102082,6917.845,95.437,540.751,538.669,0.0
52583.0,STARLINK-3895,PAYLOAD,2024-03-14 12:58:15,15.08842304,0.0001568,53.2166,134.4438,90.4228,269.6944,0.00012373,1.682e-05,0.0,0 STARLINK-3895,1 52583U 22051AZ  24074.54046288  .00001682  00000-0  12373-3 0  9993,2 52583  53.2166 134.4438 0001568  90.4228 269.6944 15.08842304102187,6917.873,95.437,540.823,538.654,0.0
52583.0,STARLINK-3895,PAYLOAD,2024-03-15 11:13:40,15.08836141,0.0001523,53.2158,130.28,87.0471,273.0696,-1.4155e-05,-5.13e-06,0.0,0 STARLINK-3895,1 52583U 22051AZ  24075.46782705 -.00000513  00000-0 -14155-4 0  9991,2 52583  53.2158 130.2800 0001523  87.0471 273.0696 15.08836141102329,6917.892,95.438,540.811,538.704,0.0
52583.0,STARLINK-3895,PAYLOAD,2024-03-16 12:39:50,15.0884181,0.0001464,53.2165,125.5215,89.7591,270.3568,6.2454e-05,7.06e-06,0.0,0 STARLINK-3895,1 52583U 22051AZ  24076.52766725  .00000706  00000-0  62454-4 0  9990,2 52583  53.2165 125.5215 0001464  89.7591 270.3568 15.08841810102484,6917.875,95.437,540.753,538.727,0.0
52583.0,STARLINK-3895,PAYLOAD,2024-03-17 09:19:51,15.08840625,0.0001528,53.2163,121.6561,82.53,277.5866,0.00012626,1.722e-05,0.0,0 STARLINK-3895,1 52583U 22051AZ  24077.38878799  .00001722  00000-0  12626-3 0  9994,2 52583  53.2163 121.6561 0001528  82.5300 277.5866 15.08840625102543,6917.878,95.438,540.801,538.686,0.0
52583.0,STARLINK-3895,PAYLOAD,2024-03-18 12:21:24,15.08843169,0.0001497,53.2158,116.6007,87.8693,272.2471,8.6114e-05,1.083e-05,0.0,0 STARLINK-3895,1 52583U 22051AZ  24078.51486638  .00001083  00000-0  86114-4 0  9991,2 52583  53.2158 116.6007 0001497  87.8693 272.2471 15.08843169102780,6917.871,95.437,540.771,538.7,0.0
52583.0,STARLINK-3895,PAYLOAD,2024-03-19 09:01:25,15.08841479,0.0001582,53.2161,112.7333,100.4642,259.6528,3.0487e-05,1.97e-06,0.0,0 STARLINK-3895,1 52583U 22051AZ  24079.37598792  .00000197  00000-0  30487-4 0  9998,2 52583  53.2161 112.7333 0001582 100.4642 259.6528 15.08841479102913,6917.876,95.437,540.835,538.646,0.0
52583.0,STARLINK-3895,PAYLOAD,2024-03-20 07:16:49,15.08834845,0.0001585,53.2158,108.5682,108.8671,251.2493,2.0611e-05,4e-07,0.0,0 STARLINK-3895,1 52583U 22051AZ  24080.30335230  .00000040  00000-0  20611-4 0  9994,2 52583  53.2158 108.5682 0001585 108.8671 251.2493 15.08834845103050,6917.896,95.438,540.858,538.665,0.0
